NORAD_CAT_ID,OBJECT_NAME,OBJECT_TYPE,EPOCH,MEAN_MOTION,ECCENTRICITY,INCLINATION,RA_OF_ASC_NODE,ARG_OF_PERICENTER,MEAN_ANOMALY,BSTAR,MEAN_MOTION_DOT,MEAN_MOTION_DDOT,TLE_LINE0,TLE_LINE1,TLE_LINE2,SEMIMAJOR_AXIS,PERIOD,APOGEE,PERIGEE,DECAYED
51768.0,STARLINK-3622,PAYLOAD,2023-05-09 05:20:05,15.08845493,0.0001086,53.2155,307.5127,81.2936,278.818,0.00024713,3.648e-05,0.0,0 STARLINK-3622,1 51768U 22017A   23129.22228792  .00003648  00000-0  24713-3 0  9991,2 51768  53.2155 307.5127 0001086  81.2936 278.8180 15.08845493 67722,6917.864,95.437,540.48,538.977,0.0
51768.0,STARLINK-3622,PAYLOAD,2023-05-10 06:46:15,15.08844582,0.0001088,53.2157,302.7532,89.7537,270.358,0.00017775,2.543e-05,0.0,0 STARLINK-3622,1 51768U 22017A   23130.28212822  .00002543  00000-0  17775-3 0  9999,2 51768  53.2157 302.7532 0001088  89.7537 270.3580 15.08844582 67889,6917.866,95.437,540.484,538.979,0.0
51768.0,STARLINK-3622,PAYLOAD,2023-05-10 17:53:57,15.08844405,0.0001006,53.2164,300.6727,92.4727,267.638,0.00012615,1.721e-05,0.0,0 STARLINK-3622,1 51768U 22017A   23130.74580826  .00001721  00000-0  12615-3 0  9997,2 51768  53.2164 300.6727 0001006  92.4727 267.6380 15.08844405 67951,6917.867,95.437,540.428,539.036,0.0
51768.0,STARLINK-3622,PAYLOAD,2023-05-11 17:44:45,15.08841271,9.21e-05,53.2158,296.2142,80.6593,279.4503,0.00010954,1.456e-05,0.0,0 STARLINK-3622,1 51768U 22017A   23131.73940981  .00001456  00000-0  10954-3 0  9998,2 51768  53.2158 296.2142 0000921  80.6593 279.4503 15.08841271 68115,6917.877,95.437,540.379,539.104,0.0
51768.0,STARLINK-3622,PAYLOAD,2023-05-12 17:35:32,15.08835662,0.0001056,53.2164,291.7508,89.9722,270.1392,4.9116e-05,4.94e-06,0.0,0 STARLINK-3622,1 51768U 22017A   23132.73301316  .00000494  00000-0  49116-4 0  9996,2 51768  53.2164 291.7508 0001056  89.9722 270.1392 15.08835662 68261,6917.894,95.438,540.489,539.028,0.0
51768.0,STARLINK-3622,PAYLOAD,2023-05-13 03:07:51,15.08837225,0.0001108,53.217,289.9659,89.3626,270.7493,0.00026772,3.975e-05,0.0,0 STARLINK-3622,1 51768U 22017A   23133.13045305  .00003975  00000-0  26772-3 0  9993,2 51768  53.2170 289.9659 0001108  89.3626 270.7493 15.08837225 68310,6917.889,95.438,540.52,538.987,0.0
51768.0,STARLINK-3622,PAYLOAD,2023-05-13 19:01:42,15.0884328,0.0001255,53.2172,286.9968,103.0852,257.028,6.6124e-05,7.65e-06,0.0,0 STARLINK-3622,1 51768U 22017A   23133.79284962  .00000765  00000-0  66124-4 0  9999,2 51768  53.2172 286.9968 0001255 103.0852 257.0280 15.08843280 68411,6917.87,95.437,540.604,538.867,0.0
51768.0,STARLINK-3622,PAYLOAD,2023-05-14 02:58:38,15.08835789,0.0001132,53.2165,285.5074,89.8399,270.2723,-3.3108e-05,-8.15e-06,0.0,0 STARLINK-3622,1 51768U 22017A   23134.12405239 -.00000815  00000-0 -33108-4 0  9993,2 51768  53.2165 285.5074 0001132  89.8399 270.2723 15.08835789 68477,6917.893,95.438,540.541,538.975,0.0
51768.0,STARLINK-3622,PAYLOAD,2023-05-14 14:06:20,15.08831971,0.0001405,53.2166,283.4265,90.2798,269.8355,-5.3494e-05,-1.139e-05,0.0,0 STARLINK-3622,1 51768U 22017A   23134.58773874 -.00001139  00000-0 -53494-4 0  9996,2 51768  53.2166 283.4265 0001405  90.2798 269.8355 15.08831971 68530,6917.905,95.438,540.742,538.798,0.0
51768.0,STARLINK-3622,PAYLOAD,2023-05-14 18:52:30,15.0883695,0.0001306,53.2178,282.5355,97.4031,262.7109,6.426e-05,7.35e-06,0.0,0 STARLINK-3622,1 51768U 22017A   23134.78645927  .00000735  00000-0  64260-4 0  9997,2 51768  53.2178 282.5355 0001306  97.4031 262.7109 15.08836950 68566,6917.89,95.438,540.658,538.851,0.0
51768.0,STARLINK-3622,PAYLOAD,2023-05-15 13:57:07,15.08839686,0.0001183,53.2168,278.9658,91.1959,268.9169,0.00010428,1.372e-05,0.0,0 STARLINK-3622,1 51768U 22017A   23135.58133810  .00001372  00000-0  10428-3 0  9993,2 51768  53.2168 278.9658 0001183  91.1959 268.9169 15.08839686 68690,6917.881,95.438,540.565,538.928,0.0
51768.0,STARLINK-3622,PAYLOAD,2023-05-15 17:07:53,15.08845757,0.0001275,53.216,278.3703,85.1126,275.0011,0.00012308,1.672e-05,0.0,0 STARLINK-3622,1 51768U 22017A   23135.71381458  .00001672  00000-0  12308-3 0  9993,2 51768  53.2160 278.3703 0001275  85.1126 275.0011 15.08845757 68701,6917.863,95.437,540.61,538.846,0.0
51768.0,STARLINK-3622,PAYLOAD,2023-05-16 12:12:31,15.08835738,0.0001389,53.2153,274.8028,80.1984,279.9165,7.129e-05,8.47e-06,0.0,0 STARLINK-3622,1 51768U 22017A   23136.50870227  .00000847  00000-0  71290-4 0  9997,2 51768  53.2153 274.8028 0001389  80.1984 279.9165 15.08835738 68821,6917.893,95.438,540.719,538.798,0.0
51768.0,STARLINK-3622,PAYLOAD,2023-05-17 15:14:04,15.08845831,0.0001192,53.2163,269.7468,90.7663,269.3465,5.3664e-05,5.66e-06,0.0,0 STARLINK-3622,1 51768U 22017A   23137.63477773  .00000566  00000-0  53664-4 0  9994,2 51768  53.2163 269.7468 0001192  90.7663 269.3465 15.08845831 69008,6917.863,95.437,540.552,538.903,0.0
51768.0,STARLINK-3622,PAYLOAD,2023-05-18 11:54:05,15.08837898,0.0001217,53.216,265.8812,87.864,272.2491,5.9827e-05,6.64e-06,0.0,0 STARLINK-3622,1 51768U 22017A   23138.49590205  .00000664  00000-0  59827-4 0  9991,2 51768  53.2160 265.8812 0001217  87.8640 272.2491 15.08837898 69135,6917.887,95.438,540.594,538.91,0.0
51768.0,STARLINK-3622,PAYLOAD,2023-05-18 13:29:29,15.08836623,0.0001157,53.216,265.5837,89.7141,270.3983,4.5597e-05,4.38e-06,0.0,0 STARLINK-3622,1 51768U 22017A   23138.56214290  .00000438  00000-0  45597-4 0  9994,2 51768  53.2160 265.5837 0001157  89.7141 270.3983 15.08836623 69139,6917.891,95.438,540.556,538.955,0.0
51768.0,STARLINK-3622,PAYLOAD,2023-05-18 18:15:39,15.0883144,0.0001062,53.2162,264.6936,77.7481,282.363,-1.518e-05,-5.29e-06,0.0,0 STARLINK-3622,1 51768U 22017A   23138.76086844 -.00000529  00000-0 -15180-4 0  9996,2 51768  53.2162 264.6936 0001062  77.7481 282.3630 15.08831440 69167,6917.907,95.438,540.506,539.037,0.0
51768.0,STARLINK-3622,PAYLOAD,2023-05-19 08:34:06,15.08836437,0.0001026,53.2167,262.0176,75.6518,284.4588,4.3936e-05,4.11e-06,0.0,0 STARLINK-3622,1 51768U 22017A   23139.35702517  .00000411  00000-0  43936-4 0  9992,2 51768  53.2167 262.0176 0001026  75.6518 284.4588 15.08836437 69265,6917.891,95.438,540.466,539.047,0.0
51768.0,STARLINK-3622,PAYLOAD,2023-05-19 11:44:53,15.08837503,0.0001003,53.2169,261.4225,76.8241,283.2863,9.6316e-05,1.245e-05,0.0,0 STARLINK-3622,1 51768U 22017A   23139.48950339  .00001245  00000-0  96316-4 0  9999,2 51768  53.2169 261.4225 0001003  76.8241 283.2863 15.08837503 69275,6917.888,95.438,540.447,539.059,0.0
51768.0,STARLINK-3622,PAYLOAD,2023-05-20 00:27:57,15.0884741,0.0001008,53.2164,259.0442,76.8935,283.2169,9.1412e-05,1.168e-05,0.0,0 STARLINK-3622,1 51768U 22017A   23140.01941583  .00001168  00000-0  91412-4 0  9997,2 51768  53.2164 259.0442 0001008  76.8935 283.2169 15.08847410 69366,6917.858,95.437,540.42,539.025,0.0
51768.0,STARLINK-3622,PAYLOAD,2023-05-20 14:46:25,15.08851428,0.0001146,53.2162,256.3647,96.0645,264.0478,0.00020439,2.968e-05,0.0,0 STARLINK-3622,1 51768U 22017A   23140.61557059  .00002968  00000-0  20439-3 0  9993,2 51768  53.2162 256.3647 0001146  96.0645 264.0478 15.08851428 69449,6917.845,95.437,540.503,538.918,0.0
51768.0,STARLINK-3622,PAYLOAD,2023-05-21 00:18:44,15.08843147,7.55e-05,53.2169,254.5799,88.1071,272.0008,0.00015141,2.123e-05,0.0,0 STARLINK-3622,1 51768U 22017A   23141.01301519  .00002123  00000-0  15141-3 0  9993,2 51768  53.2169 254.5799 0000755  88.1071 272.0008 15.08843147 69519,6917.871,95.437,540.258,539.213,0.0
51768.0,STARLINK-3622,PAYLOAD,2023-05-21 09:51:04,15.08835917,0.0001121,53.2163,252.7976,101.1478,258.964,-2.6496e-05,-7.09e-06,0.0,0 STARLINK-3622,1 51768U 22017A   23141.41046539 -.00000709  00000-0 -26496-4 0  9991,2 51768  53.2163 252.7976 0001121 101.1478 258.9640 15.08835917 69572,6917.893,95.438,540.533,538.982,0.0
51768.0,STARLINK-3622,PAYLOAD,2023-05-21 11:26:27,15.08836882,0.0001081,53.2159,252.5014,105.4489,254.6623,-1.6896e-05,-5.57e-06,0.0,0 STARLINK-3622,1 51768U 22017A   23141.47670406 -.00000557  00000-0 -16896-4 0  9997,2 51768  53.2159 252.5014 0001081 105.4489 254.6623 15.08836882 69578,6917.89,95.438,540.503,539.007,0.0
51768.0,STARLINK-3622,PAYLOAD,2023-05-21 14:37:13,15.0884235,0.0001049,53.2163,251.9053,101.5933,258.5177,2.241e-05,6.9e-07,0.0,0 STARLINK-3622,1 51768U 22017A   23141.60917934  .00000069  00000-0  22410-4 0  9997,2 51768  53.2163 251.9053 0001049 101.5933 258.5177 15.08842350 69602,6917.873,95.437,540.464,539.013,0.0
51768.0,STARLINK-3622,PAYLOAD,2023-05-22 09:41:51,15.08837575,0.0001058,53.2161,248.3376,102.4425,257.6685,-9.7452e-06,-4.43e-06,0.0,0 STARLINK-3622,1 51768U 22017A   23142.40406380 -.00000443  00000-0 -97452-5 0  9991,2 51768  53.2161 248.3376 0001058 102.4425 257.6685 15.08837575 69724,6917.888,95.438,540.485,539.021,0.0
51768.0,STARLINK-3622,PAYLOAD,2023-05-22 11:17:14,15.08838491,0.0001008,53.2159,248.0408,103.0693,257.0411,-4.3003e-06,-3.56e-06,0.0,0 STARLINK-3622,1 51768U 22017A   23142.47030310 -.00000356  00000-0 -43003-5 0  9990,2 51768  53.2159 248.0408 0001008 103.0693 257.0411 15.08838491 69722,6917.885,95.438,540.447,539.053,0.0
51768.0,STARLINK-3622,PAYLOAD,2023-05-22 14:28:00,15.08847236,9.78e-05,53.2163,247.4451,100.7774,259.3328,-3.1339e-05,-7.87e-06,0.0,0 STARLINK-3622,1 51768U 22017A   23142.60277841 -.00000787  00000-0 -31339-4 0  9993,2 51768  53.2163 247.4451 0000978 100.7774 259.3328 15.08847236 69759,6917.858,95.437,540.4,539.047,0.0
51768.0,STARLINK-3622,PAYLOAD,2023-05-23 11:08:01,15.08829339,8.8e-05,53.216,243.5813,123.889,236.2186,6.1427e-05,6.9e-06,0.0,0 STARLINK-3622,1 51768U 22017A   23143.46390881  .00000690  00000-0  61427-4 0  9990,2 51768  53.2160 243.5813 0000880 123.8890 236.2186 15.08829339 69886,6917.913,95.438,540.387,539.169,0.0
51768.0,STARLINK-3622,PAYLOAD,2023-05-23 14:18:47,15.08836629,0.0001032,53.2171,242.9848,83.2327,276.8782,3.4919e-05,2.68e-06,0.0,0 STARLINK-3622,1 51768U 22017A   23143.59638720  .00000268  00000-0  34919-4 0  9998,2 51768  53.2171 242.9848 0001032  83.2327 276.8782 15.08836629 69896,6917.891,95.438,540.47,539.042,0.0
